QIANFAN-81              
1 63167U 25046J   25296.64421543  .00000171  00000+0  24609-3 0  9995
2 63167  88.9781 325.0603 0012691 264.4444  95.5260 13.50989348 40722
QIANFAN-82              
1 63168U 25046K   25296.60341497  .00000163  00000+0  23483-3 0  9991
2 63168  88.9781 325.1081 0010810 273.8435  86.1480 13.50971460 40703
QIANFAN-83              
1 63169U 25046L   25296.59417294  .00000149  00000+0  17776-3 0  9991
2 63169  88.9777 324.9839 0012096 259.7624 100.2170 13.61965953 40771
QIANFAN-84              
1 63170U 25046M   25296.63166061  .00000094  00000+0  12775-3 0  9994
2 63170  88.9781 325.2382 0013777 269.5441  90.4131 13.50987999 40632
QIANFAN-85              
1 63171U 25046N   25296.62809066  .00000188  00000+0  27348-3 0  9999
2 63171  88.9780 325.1105 0011163 272.4705  87.5168 13.50974640 40701
QIANFAN-86              
1 63172U 25046P   25296.56229203  .00000218  00000+0  31947-3 0  9996
2 63172  88.9782 324.9781 0009036 277.9034  82.1091 13.50971743 40776
QIANFAN-87              
1 63173U 25046Q   25296.60752433  .00000124  00000+0  17417-3 0  9990
2 63173  88.9771 325.0871 0009696 271.8222  88.1818 13.50969388 40710
QIANFAN-88              
1 63174U 25046R   25296.62400877  .00000147  00000+0  20953-3 0  9999
2 63174  88.9781 325.0386 0010115 281.2965  78.7050 13.50970561 40741
